STARLINK-31761
1 59615U 24080Q   26061.16668981  .00281600  00000+0  43476-2 0  9992
2 59615  42.9949  74.4223 0018117 110.8490 129.7536 15.52213178  5876
